OBJECT_NAME,OBJECT_ID,EPOCH,MEAN_MOTION,ECCENTRICITY,INCLINATION,RA_OF_ASC_NODE,ARG_OF_PERICENTER,MEAN_ANOMALY,EPHEMERIS_TYPE,CLASSIFICATION_TYPE,NORAD_CAT_ID,ELEMENT_SET_NO,REV_AT_EPOCH,BSTAR,MEAN_MOTION_DOT,MEAN_MOTION_DDOT
SIRION PATHFINDER-2,2018-099B,2026-06-18T08:54:12.773088,15.14555966,.0007168,97.4248,218.4004,300.0763,59.9758,0,U,43759,999,41280,.1936547E-3,.3507E-4,0
CORVUS BC4,2018-099K,2026-06-18T13:51:46.899360,15.12505661,.00081398,97.4063,212.5173,8.8952,351.2422,0,U,43767,999,41261,.18972758E-3,.3242E-4,0
M2 PATHFINDER,2020-037E,2026-06-18T12:14:14.276544,15.04679497,.00125597,97.8145,0.7565,142.3155,217.8953,0,U,45727,999,32569,.92873604E-4,.1244E-4,0
NETSAT-4,2020-068U,2026-06-17T23:13:01.939584,15.43886308,.00037463,97.8602,177.2709,334.9225,25.1839,0,U,46504,999,31589,.32135229E-3,.14505E-3,0
NETSAT-3,2020-068V,2026-06-17T23:22:55.904160,15.42703106,.00041054,97.8650,175.4935,358.6628,1.4606,0,U,46505,999,31580,.36637403E-3,.15908E-3,0
NETSAT-1,2020-068W,2026-06-18T10:32:51.350208,15.34667272,.00048891,97.8747,170.3121,28.7816,331.3694,0,U,46506,999,31549,.29212074E-3,.9731E-4,0
NETSAT-2,2020-068X,2026-06-18T11:01:34.290624,15.46044422,.00032879,97.8610,177.7012,23.2689,336.8708,0,U,46507,999,31593,.37804046E-3,.18392E-3,0
GREENCUBE (IO-117),2022-080E,2026-06-18T10:18:19.245024,6.42583246,.00089041,70.1442,297.8130,289.4279,70.5418,0,U,53109,999,9214,0,-.3E-7,0
SITRO-AIS 5 (KATYS),2023-091L,2026-06-18T13:47:37.907520,15.29483416,.00127526,97.5056,233.4874,99.3309,260.9374,0,U,57176,999,16455,.33471916E-3,.9515E-4,0
SITRO-AIS 6 (CHIRKIN),2023-091AC,2026-06-18T14:56:21.277536,15.25957383,.0013098,97.5063,232.6471,102.1000,258.1706,0,U,57192,999,16450,.30029715E-3,.7656E-4,0
SITRO-AIS 8 (ANOKHIN),2023-091AD,2026-06-18T14:08:39.287040,15.32168530,.00117564,97.5051,235.0962,95.7724,264.4859,0,U,57193,999,16466,.38101636E-3,.11784E-3,0
SITRO-AIS 7 (FARTUSHNIY),2023-091AE,2026-06-18T13:26:51.862272,15.25644426,.00129602,97.5061,232.4091,103.2287,257.0398,0,U,57194,999,16448,.3015315E-3,.7616E-4,0
SITRO-AIS 10 (BURDAEV),2023-091AK,2026-06-18T14:45:34.903584,15.38657532,.000741,97.5078,240.1913,76.0322,284.1747,0,U,57199,999,16498,.42071708E-3,.16009E-3,0
SITRO-AIS 9 (SHCHUKIN),2023-091AM,2026-06-18T13:50:34.558368,15.38162675,.00076698,97.5075,239.8813,76.2887,283.9211,0,U,57201,999,16496,.41044916E-3,.15366E-3,0
SITRO-AIS 12 (SMIRENNIY),2023-091AQ,2026-06-18T13:36:41.388480,15.38455674,.00071938,97.5089,240.3394,71.3505,288.8521,0,U,57204,999,16498,.41188668E-3,.15566E-3,0
SITRO-AIS 11 (SHEFFER),2023-091AU,2026-06-18T13:55:27.527808,15.38881283,.00070935,97.5086,240.6002,71.0926,289.1087,0,U,57208,999,16500,.40851705E-3,.15654E-3,0
SITRO-AIS 25,2024-039R,2026-06-18T13:58:17.481792,14.93519055,.0143275,95.3904,236.0513,323.8249,35.3349,0,U,59066,999,12493,.18053694E-3,.229E-4,0
SITRO-AIS 26,2024-039S,2026-06-18T14:00:32.487840,14.93315282,.01436793,95.3910,235.9495,324.4327,34.7385,0,U,59067,999,12492,.16958872E-3,.2139E-4,0
SITRO-AIS 27,2024-039T,2026-06-18T14:53:35.455200,14.93736460,.01426503,95.3911,236.2474,322.9116,36.2316,0,U,59068,999,12495,.13273061E-3,.1681E-4,0
SITRO-AIS 28,2024-039U,2026-06-18T14:21:04.053312,14.93769557,.01425876,95.3912,236.2791,322.8142,36.3272,0,U,59071,999,12495,.18086065E-3,.2306E-4,0
GRBBETA,2024-128C,2026-06-18T09:57:07.269408,15.06645417,.00404872,61.9881,211.9597,134.9163,225.5227,0,U,60237,999,10645,.16765906E-3,.2322E-4,0
OOV-CUBE (TUBSAT-30),2024-128F,2026-06-18T14:03:38.935584,15.02778204,.00444637,61.9932,220.6959,134.0792,226.3973,0,U,60240,999,10632,.11901618E-3,.1416E-4,0
ROBUSTA-3A (MEDITERRANEE),2024-128J,2026-06-18T14:09:43.205760,15.11687144,.004122,61.9844,203.2827,128.1819,232.3001,0,U,60243,999,10663,.24301876E-3,.4012E-4,0
LASARSAT,2024-247Q,2026-06-16T23:25:46.453440,15.46364825,.000818,44.9742,263.4006,330.0323,30.0098,0,U,62391,999,8328,.52389176E-3,.26221E-3,0
CROCUBE,2024-247T,2026-06-17T16:25:00.765696,15.48292245,.00079679,44.9716,256.7472,338.3414,21.7139,0,U,62394,999,8342,.53654775E-3,.2875E-3,0
FORESAIL-1 PRIME,2025-276DS,2026-06-18T12:17:14.953632,15.18712200,.00039529,97.4198,242.7588,100.5303,259.6377,0,U,66778,999,3060,.179529E-3,.3659E-4,0
KNACKSAT-2,1998-067XZ,2026-06-17T14:33:42.297120,15.60014370,.0009088,51.6314,292.3670,217.1010,142.9356,0,U,67683,999,2034,.49993E-3,.40994E-3,0
